SWARM B                 
1 39451U 13067A   26186.20211018  .00005082  00000+0  18118-3 0  9993
2 39451  87.7456 336.8431 0002701  79.9823 280.1731 15.28671357685991
SWARM A                 
1 39452U 13067B   26186.15491032  .00016539  00000+0  28106-3 0  9991
2 39452  87.3304  49.5623 0003213  96.4152 263.7475 15.51314015709034
SWARM C                 
1 39453U 13067C   26186.15481201  .00016796  00000+0  28543-3 0  9999
2 39453  87.3304  48.1433 0003206  96.3577 263.8050 15.51313542708999
BRITE-CA1 (TORONTO)     
1 40020U 14033L   26185.63533524  .00001450  00000+0  22478-3 0  9995
2 40020  97.9761 314.2438 0077706 220.2855 139.2579 14.72709042644784
OCO 2                   
1 40059U 14035A   26185.80347826  .00000582  00000+0  13927-3 0  9990
2 40059  98.2019 126.8285 0001477  81.5801 278.5565 14.57126814638614
BRITE-PL2 (HEWELIUSZ)   
1 40119U 14049B   26186.24822327  .00002652  00000+0  24959-3 0  9992
2 40119  97.9113 298.3892 0014962  53.5962 306.6636 14.94663268644148
MMS 1                   
1 40482U 15011A   26186.33336806 -.00000755  00000+0  00000+0 0  9997
2 40482  72.5895 348.5340 8335317 167.8763 349.6944  0.28163218  1394
MMS 2                   
1 40483U 15011B   26186.33336806 -.00000756  00000+0  00000+0 0  9999
2 40483  72.5937 348.5329 8338164 167.8794 349.6839  0.28161904  1399
MMS 3                   
1 40484U 15011C   26186.33336806 -.00000755  00000+0  00000+0 0  9999
2 40484  72.5931 348.5450 8336285 167.8884 349.6575  0.28166691  1396
MMS 4                   
1 40485U 15011D   26186.33336806 -.00000755  00000+0  00000+0 0  9990
2 40485  72.5894 348.5282 8336480 167.8967 349.6522  0.28161799  1393
ASTROSAT                
1 40930U 15052A   26185.98602855  .00002011  00000+0  16263-3 0  9998
2 40930   5.9981  27.2244 0008583 288.2133  71.7061 14.82541064582475
DAMPE                   
1 41173U 15078A   26186.27507024  .00001831  00000+0  63973-4 0  9991
2 41173  97.4559 191.8316 0012686  20.0115 340.1620 15.30834691587318
PISAT                   
1 41784U 16059B   26185.99014120  .00001339  00000+0  23488-3 0  9996
2 41784  97.8183 185.6782 0029817 146.1425 214.1693 14.69017629522357
HXMT (HUIYAN)           
1 42758U 17034A   26186.15694615  .00007269  00000+0  35113-3 0  9990
2 42758  43.0140  82.9714 0032810 259.6248 100.0902 15.18624619500393
FLYING LAPTOP           
1 42831U 17042G   26186.31571728  .00005315  00000+0  41620-3 0  9998
2 42831  97.4777 341.1600 0019973  63.9242 296.4036 15.01267652489175
ZHANGHENG 1-01 (CSES-1) 
1 43194U 18015C   26186.29740630  .00009524  00000+0  42997-3 0  9993
2 43194  97.6889 352.3184 0017959 199.9720 160.0814 15.21064136467392
SALSAT                  
1 46495U 20068K   26185.73936093  .00013612  00000+0  46989-3 0  9997
2 46495  97.8855 189.8756 0008222 233.3566 126.6918 15.30063013318049
IXPE                    
1 49954U 21121A   26186.25005787  .00024838  00000+0  14063-2 0  9995
2 49954   0.2280 180.7122 0006847 354.7447 164.0624 15.10418993  5734
SMILE                   
1 69123U 26109A   26158.38327019 -.00000041  00000+0 -36778-3 0  9994
2 69123  69.9787 209.3069 3310191 288.5544  45.7342  7.54049028  2480
