OBJECT_NAME,OBJECT_ID,EPOCH,MEAN_MOTION,ECCENTRICITY,INCLINATION,RA_OF_ASC_NODE,ARG_OF_PERICENTER,MEAN_ANOMALY,EPHEMERIS_TYPE,CLASSIFICATION_TYPE,NORAD_CAT_ID,ELEMENT_SET_NO,REV_AT_EPOCH,BSTAR,MEAN_MOTION_DOT,MEAN_MOTION_DDOT
SWARM B,2013-067A,2026-07-05T04:51:02.319552,15.28671357,.00027015,87.7456,336.8431,79.9823,280.1731,0,U,39451,999,68599,.18117679E-3,.5082E-4,0
SWARM A,2013-067B,2026-07-05T03:43:04.251648,15.51314015,.00032132,87.3304,49.5623,96.4152,263.7475,0,U,39452,999,70903,.28105549E-3,.16539E-3,0
SWARM C,2013-067C,2026-07-05T03:42:55.757664,15.51313542,.00032068,87.3304,48.1433,96.3577,263.8050,0,U,39453,999,70899,.28542984E-3,.16796E-3,0
BRITE-CA1 (TORONTO),2014-033L,2026-07-04T15:14:52.964736,14.72709042,.00777067,97.9761,314.2438,220.2855,139.2579,0,U,40020,999,64478,.22477598E-3,.145E-4,0
OCO 2,2014-035A,2026-07-04T19:17:00.521664,14.57126814,.00014774,98.2019,126.8285,81.5801,278.5565,0,U,40059,999,63861,.13926573E-3,.582E-5,0
BRITE-PL2 (HEWELIUSZ),2014-049B,2026-07-05T05:57:26.490528,14.94663268,.00149627,97.9113,298.3892,53.5962,306.6636,0,U,40119,999,64414,.24959488E-3,.2652E-4,0
MMS 1,2015-011A,2026-07-05T08:00:03.000384,0.28163218,.83353176,72.5895,348.5340,167.8763,349.6944,0,U,40482,999,139,0,-.755E-5,0
MMS 2,2015-011B,2026-07-05T08:00:03.000384,0.28161904,.83381647,72.5937,348.5329,167.8794,349.6839,0,U,40483,999,139,0,-.756E-5,0
MMS 3,2015-011C,2026-07-05T08:00:03.000384,0.28166691,.83362859,72.5931,348.5450,167.8884,349.6575,0,U,40484,999,139,0,-.755E-5,0
MMS 4,2015-011D,2026-07-05T08:00:03.000384,0.28161799,.83364805,72.5894,348.5282,167.8967,349.6522,0,U,40485,999,139,0,-.755E-5,0
ASTROSAT,2015-052A,2026-07-04T23:39:52.866720,14.82541064,.00085835,5.9981,27.2244,288.2133,71.7061,0,U,40930,999,58247,.16263207E-3,.2011E-4,0
DAMPE,2015-078A,2026-07-05T06:36:06.068736,15.30834691,.0012686,97.4559,191.8316,20.0115,340.1620,0,U,41173,999,58731,.63973025E-4,.1831E-4,0
PISAT,2016-059B,2026-07-04T23:45:48.199680,14.69017629,.00298177,97.8183,185.6782,146.1425,214.1693,0,U,41784,999,52235,.23487793E-3,.1339E-4,0
HXMT (HUIYAN),2017-034A,2026-07-05T03:46:00.147360,15.18624619,.00328107,43.0140,82.9714,259.6248,100.0902,0,U,42758,999,50039,.35112862E-3,.7269E-4,0
FLYING LAPTOP,2017-042G,2026-07-05T07:34:37.972992,15.01267652,.00199732,97.4777,341.1600,63.9242,296.4036,0,U,42831,999,48917,.41620031E-3,.5315E-4,0
ZHANGHENG 1-01 (CSES-1),2018-015C,2026-07-05T07:08:15.904320,15.21064136,.00179593,97.6889,352.3184,199.9720,160.0814,0,U,43194,999,46739,.42997442E-3,.9524E-4,0
SALSAT,2020-068K,2026-07-04T17:44:40.784352,15.30063013,.00082227,97.8855,189.8756,233.3566,126.6918,0,U,46495,999,31804,.46989133E-3,.13612E-3,0
IXPE,2021-121A,2026-07-05T06:00:04.999968,15.10418993,.00068474,0.2280,180.7122,354.7447,164.0624,0,U,49954,999,573,.14063019E-2,.24838E-3,0
SMILE,2026-109A,2026-06-07T09:11:54.544416,7.54049028,.3310191,69.9787,209.3069,288.5544,45.7342,0,U,69123,999,248,-.36778157E-3,-.41E-6,0
